NORAD_CAT_ID,OBJECT_NAME,OBJECT_TYPE,EPOCH,MEAN_MOTION,ECCENTRICITY,INCLINATION,RA_OF_ASC_NODE,ARG_OF_PERICENTER,MEAN_ANOMALY,BSTAR,MEAN_MOTION_DOT,MEAN_MOTION_DDOT,TLE_LINE0,TLE_LINE1,TLE_LINE2,SEMIMAJOR_AXIS,PERIOD,APOGEE,PERIGEE,DECAYED
52476.0,STARLINK-3835,PAYLOAD,2024-08-16 21:08:26,15.08848345,0.0001836,53.217,87.3346,97.9593,262.1607,-4.3151e-05,-9.75e-06,0.0,0 STARLINK-3835,1 52476U 22049AB  24229.88085814 -.00000975  00000-0 -43151-4 0  9993,2 52476  53.2170  87.3346 0001836  97.9593 262.1607 15.08848345126521,6917.855,95.437,540.99,538.45,0.0
52476.0,STARLINK-3835,PAYLOAD,2024-08-17 00:19:12,15.0885435,0.0001819,53.2168,86.7388,101.7131,258.4065,-1.7294e-05,-5.64e-06,0.0,0 STARLINK-3835,1 52476U 22049AB  24230.01333579 -.00000564  00000-0 -17294-4 0  9997,2 52476  53.2168  86.7388 0001819 101.7131 258.4065 15.08854350127621,6917.837,95.437,540.96,538.443,0.0
52476.0,STARLINK-3835,PAYLOAD,2024-08-17 14:37:40,15.08839289,0.0001695,53.2151,84.0649,93.4849,266.6337,-5.6836e-05,-1.193e-05,0.0,0 STARLINK-3835,1 52476U 22049AB  24230.60950214 -.00001193  00000-0 -56836-4 0  9997,2 52476  53.2151  84.0649 0001695  93.4849 266.6337 15.08839289126636,6917.883,95.438,540.92,538.575,0.0
52476.0,STARLINK-3835,PAYLOAD,2024-08-18 19:14:36,15.08852416,0.0001871,53.2171,78.7149,65.6853,294.4334,8.5358e-05,1.071e-05,0.0,0 STARLINK-3835,1 52476U 22049AB  24231.80181591  .00001071  00000-0  85358-4 0  9998,2 52476  53.2171  78.7149 0001871  65.6853 294.4334 15.08852416126818,6917.842,95.437,541.002,538.413,0.0
52476.0,STARLINK-3835,PAYLOAD,2024-08-19 14:19:14,15.08844778,0.0002781,53.2169,75.1422,88.6614,271.4697,0.00010413,1.369e-05,0.0,0 STARLINK-3835,1 52476U 22049AB  24232.59669791  .00001369  00000-0  10413-3 0  9997,2 52476  53.2169  75.1422 0002781  88.6614 271.4697 15.08844778128014,6917.866,95.437,541.655,537.807,0.0
52476.0,STARLINK-3835,PAYLOAD,2024-08-19 20:40:47,15.08829944,0.0001557,53.2177,73.9519,78.8466,281.2702,-0.00010159,-1.904e-05,0.0,0 STARLINK-3835,1 52476U 22049AB  24232.86166469 -.00001904  00000-0 -10159-3 0  9995,2 52476  53.2177  73.9519 0001557  78.8466 281.2702 15.08829944126979,6917.911,95.438,540.853,538.699,0.0
52476.0,STARLINK-3835,PAYLOAD,2024-08-20 06:13:06,15.0884124,0.0001249,53.2177,72.171,101.2849,258.8283,-0.00010713,-1.992e-05,0.0,0 STARLINK-3835,1 52476U 22049AB  24233.25909978 -.00001992  00000-0 -10713-3 0  9992,2 52476  53.2177  72.1710 0001249 101.2849 258.8283 15.08841240127032,6917.877,95.437,540.606,538.878,0.0
52476.0,STARLINK-3835,PAYLOAD,2024-08-20 23:42:20,15.08852028,0.0001446,53.2163,68.8981,90.1537,269.9621,0.00057199,8.83e-05,0.0,0 STARLINK-3835,1 52476U 22049AB  24233.98773749  .00008830  00000-0  57199-3 0  9992,2 52476  53.2163  68.8981 0001446  90.1537 269.9621 15.08852028127145,6917.844,95.437,540.709,538.708,0.0
52476.0,STARLINK-3835,PAYLOAD,2024-08-21 20:22:21,15.08839982,0.0001026,53.2151,65.0311,91.1664,268.9446,0.00032828,4.941e-05,0.0,0 STARLINK-3835,1 52476U 22049AB  24234.84886230  .00004941  00000-0  32828-3 0  9999,2 52476  53.2151  65.0311 0001026  91.1664 268.9446 15.08839982128356,6917.88,95.438,540.455,539.036,0.0
52476.0,STARLINK-3835,PAYLOAD,2024-08-21 21:57:44,15.08841795,0.0001003,53.2151,64.7343,89.0575,271.0532,0.0004631,7.09e-05,0.0,0 STARLINK-3835,1 52476U 22049AB  24234.91510257  .00007090  00000-0  46310-3 0  9999,2 52476  53.2151  64.7343 0001003  89.0575 271.0532 15.08841795127286,6917.875,95.437,540.434,539.046,0.0
